{"spkid": "20004581", "covariance": {"epoch": "2457674.5", "labels": ["e", "q", "tp", "node", "peri", "i", "A2"], "data": [["3.617746642309778E-15", "-3.548007656504352E-15", "2.585897007947379E-13", "4.162799312709714E-13", "-2.731256942775291E-13", "7.106605817272153E-14", "2.680713577018413E-22"], ["-3.548007656504352E-15", "3.479965375705258E-15", "-2.522901815732881E-13", "-4.118025985619841E-13", "2.718036201635046E-13", "-7.014102124993034E-14", "-2.623975338395268E-22"], ["2.585897007947379E-13", "-2.522901815732881E-13", "2.473760959151845E-11", "1.426819458214609E-11", "-1.341096198830691E-12", "2.03522243077088E-12", "1.81534960581493E-20"], ["4.162799312709714E-13", "-4.118025985619841E-13", "1.426819458214609E-11", "4.099041459054274E-10", "-4.101607590529279E-10", "1.185445079899151E-11", "2.692594704108481E-20"], ["-2.731256942775291E-13", "2.718036201635046E-13", "-1.341096198830691E-12", "-4.101607590529279E-10", "4.189070461178337E-10", "-1.195974625997483E-11", "-1.569508479796511E-20"], ["7.106605817272153E-14", "-7.014102124993034E-14", "2.03522243077088E-12", "1.185445079899151E-11", "-1.195974625997483E-11", "6.017897573998E-12", "5.098254663204546E-21"], ["2.680713577018413E-22", "-2.623975338395268E-22", "1.81534960581493E-20", "2.692594704108481E-20", "-1.569508479796511E-20", "5.098254663204546E-21", "3.594856343882367E-29"]], "elements": [{"name": "e", "sigma": 6.01477068749074e-08, "title": "eccentricity", "value": ".3570005318344934", "units": null, "label": "e"}, {"label": "q", "sigma": 5.8991231345898e-08, "name": "q", "value": ".6574601671679525", "title": "perihelion distance", "units": "au"}, {"label": "tp", "name": "tp", "sigma": 4.97369174673285e-06, "units": "TDB", "value": "2457734.257401952396", "title": "time of perihelion passage"}, {"units": "deg", "value": "180.2635338098327", "title": "longitude of the ascending node", "name": "om", "sigma": 2.02460896448037e-05, "label": "node"}, {"label": "peri", "title": "argument of perihelion", "value": "255.2842965809314", "units": "deg", "name": "w", "sigma": 2.04672188173634e-05}, {"title": "inclination", "value": "4.919414201643368", "units": "deg", "name": "i", "sigma": 2.45314034942928e-06, "label": "i"}]}, "elements": [{"label": "e", "sigma": "4.9323E-8", "name": "e", "value": ".3563837704716197", "title": "eccentricity", "units": null}, {"name": "a", "sigma": "1.8324E-8", "units": "au", "value": "1.021277692858941", "title": "semi-major axis", "label": "a"}, {"units": "au", "value": ".6573108979793151", "title": "perihelion distance", "sigma": "6.1848E-8", "name": "q", "label": "q"}, {"label": "i", "name": "i", "sigma": "2.5686E-6", "units": "deg", "title": "inclination; angle with respect to x-y ecliptic plane", "value": "4.926001892399088"}, {"sigma": "2.0579E-5", "name": "om", "title": "longitude of the ascending node", "value": "180.2134412024837", "units": "deg", "label": "node"}, {"sigma": "2.0411E-5", "name": "w", "units": "deg", "title": "argument of perihelion", "value": "255.4625327200767", "label": "peri"}, {"label": "M", "sigma": "2.5865E-5", "name": "ma", "units": "deg", "title": "mean anomaly", "value": "64.09243778966929"}, {"name": "tp", "sigma": "2.8884E-5", "units": "TDB", "value": "2461133.385171371045", "title": "time of perihelion passage", "label": "tp"}, {"label": "period", "title": "sidereal orbital period", "value": "376.9764287280456", "units": "d", "name": "per", "sigma": "1.0146E-5"}, {"label": "n", "sigma": "2.5702E-8", "name": "n", "title": "mean motion", "value": ".9549668694530167", "units": "deg/d"}, {"name": "ad", "sigma": "2.4855E-8", "units": "au", "value": "1.385244487738568", "title": "aphelion distance", "label": "Q"}], "epoch": "2461200.5"}